{"type": "FeatureCollection", "features": [ {"type": "Feature", "properties": {"norad_id": 32352, "name": "FENGYUN 1C DEB", "group": "fengyun-1c-debris", "lat": -18.358034766714173, "lon": 97.59875274336186, "alt_km": 724.1465319755225, "timestamp": "2025-12-26T03:50:12.379655+00:00", "meta": {"OBJECT_NAME": "FENGYUN 1C DEB", "OBJECT_ID": "1999-025CYV", "EPOCH": "2025-12-25T00:16:27.065568", "MEAN_MOTION": 14.41437454, "ECCENTRICITY": 0.01226682, "INCLINATION": 98.7798, "RA_OF_ASC_NODE": 279.3585, "ARG_OF_PERICENTER": 134.5255, "MEAN_ANOMALY": 226.6034, "EPHEMERIS_TYPE": 0, "CLASSIFICATION_TYPE": "U", "NORAD_CAT_ID": 32352, "ELEMENT_SET_NO": 999, "REV_AT_EPOCH": 65446, "BSTAR": 0.00020280465, "MEAN_MOTION_DOT": 6.69e-06, "MEAN_MOTION_DDOT": 0}, "tle": {"line1": "1 32352U 99025CYV 25359.01142437  .00000669  00000+0  20280-3 0  9991", "line2": "2 32352  98.7798 279.3585 0122668 134.5255 226.6034 14.41437454654469"}}, "geometry": {"type": "Point", "coordinates": [97.59875274336186, -18.358034766714173]}}, {"type": "Feature", "properties": {"norad_id": 32353, "name": "FENGYUN 1C DEB", "group": "fengyun-1c-debris", "lat": -4.249030747731219, "lon": 177.0612825992064, "alt_km": 971.2690017498026, "timestamp": "2025-12-26T03:50:12.379665+00:00", "meta": {"OBJECT_NAME": "FENGYUN 1C DEB", "OBJECT_ID": "1999-025CYW", "EPOCH": "2025-12-24T05:40:29.330112", "MEAN_MOTION": 14.03902083, "ECCENTRICITY": 0.01243796, "INCLINATION": 98.9207, "RA_OF_ASC_NODE": 174.5047, "ARG_OF_PERICENTER": 167.3058, "MEAN_ANOMALY": 193.129, "EPHEMERIS_TYPE": 0, "CLASSIFICATION_TYPE": "U", "NORAD_CAT_ID": 32353, "ELEMENT_SET_NO": 999, "REV_AT_EPOCH": 63355, "BSTAR": 0.0025490541, "MEAN_MOTION_DOT": 4.268e-05, "MEAN_MOTION_DDOT": 0}, "tle": {"line1": "1 32353U 99025CYW 25358.23645058  .00004268  00000+0  25491-2 0  9999", "line2": "2 32353  98.9207 174.5047 0124379 167.3058 193.1290 14.03902083633554"}}, "geometry": {"type": "Point", "coordinates": [177.0612825992064, -4.249030747731219]}}, {"type": "Feature", "properties": {"norad_id": 32355, "name": "FENGYUN 1C DEB", "group": "fengyun-1c-debris", "lat": 17.91189334790249, "lon": -68.9441564795498, "alt_km": 396.40683818129946, "timestamp": "2025-12-26T03:50:12.379676+00:00", "meta": {"OBJECT_NAME": "FENGYUN 1C DEB", "OBJECT_ID": "1999-025CYY", "EPOCH": "2025-12-20T14:58:00.151104", "MEAN_MOTION": 15.46351214, "ECCENTRICITY": 0.0028321, "INCLINATION": 100.3409, "RA_OF_ASC_NODE": 286.5316, "ARG_OF_PERICENTER": 70.0985, "MEAN_ANOMALY": 54.5123, "EPHEMERIS_TYPE": 0, "CLASSIFICATION_TYPE": "U", "NORAD_CAT_ID": 32355, "ELEMENT_SET_NO": 999, "REV_AT_EPOCH": 65112, "BSTAR": 0.008971, "MEAN_MOTION_DOT": 0.00476436, "MEAN_MOTION_DDOT": 0}, "tle": {"line1": "1 32355U 99025CYY 25354.62361286  .00476436  00000+0  89710-2 0  9992", "line2": "2 32355 100.3409 286.5316 0028321  70.0985  54.5123 15.46351214651120"}}, "geometry": {"type": "Point", "coordinates": [-68.9441564795498, 17.91189334790249]}}, {"type": "Feature", "properties": {"norad_id": 32356, "name": "FENGYUN 1C DEB", "group": "fengyun-1c-debris", "lat": 7.048434269553314, "lon": 48.92327871854069, "alt_km": 973.9313223420268, "timestamp": "2025-12-26T03:50:12.379690+00:00", "meta": {"OBJECT_NAME": "FENGYUN 1C DEB", "OBJECT_ID": "1999-025CYZ", "EPOCH": "2025-12-22T20:18:51.506208", "MEAN_MOTION": 14.03451299, "ECCENTRICITY": 0.01261583, "INCLINATION": 102.4963, "RA_OF_ASC_NODE": 222.8166, "ARG_OF_PERICENTER": 351.4659, "MEAN_ANOMALY": 8.4349, "EPHEMERIS_TYPE": 0, "CLASSIFICATION_TYPE": "U", "NORAD_CAT_ID": 32356, "ELEMENT_SET_NO": 999, "REV_AT_EPOCH": 68529, "BSTAR": 0.0023312729, "MEAN_MOTION_DOT": 3.845e-05, "MEAN_MOTION_DDOT": 0}, "tle": {"line1": "1 32356U 99025CYZ 25356.84642947  .00003845  00000+0  23313-2 0  9992", "line2": "2 32356 102.4963 222.8166 0126158 351.4659   8.4349 14.03451299685295"}}, "geometry": {"type": "Point", "coordinates": [48.92327871854069, 7.048434269553314]}}, {"type": "Feature", "properties": {"norad_id": 32357, "name": "FENGYUN 1C DEB", "group": "fengyun-1c-debris", "lat": 50.95403093031543, "lon": -130.45070398283576, "alt_km": 665.2902920166598, "timestamp": "2025-12-26T03:50:12.379700+00:00", "meta": {"OBJECT_NAME": "FENGYUN 1C DEB", "OBJECT_ID": "1999-025CZA", "EPOCH": "2025-12-13T21:20:47.666112", "MEAN_MOTION": 13.68708108, "ECCENTRICITY": 0.04907347, "INCLINATION": 98.8577, "RA_OF_ASC_NODE": 27.1403, "ARG_OF_PERICENTER": 184.5127, "MEAN_ANOMALY": 353.61, "EPHEMERIS_TYPE": 0, "CLASSIFICATION_TYPE": "U", "NORAD_CAT_ID": 32357, "ELEMENT_SET_NO": 999, "REV_AT_EPOCH": 66803, "BSTAR": 0.0036548407, "MEAN_MOTION_DOT": 7.308e-05, "MEAN_MOTION_DDOT": 0}, "tle": {"line1": "1 32357U 99025CZA 25347.88944058  .00007308  00000+0  36548-2 0  9997", "line2": "2 32357  98.8577  27.1403 0490734 184.5127 353.6100 13.68708108668031"}}, "geometry": {"type": "Point", "coordinates": [-130.45070398283576, 50.95403093031543]}}, {"type": "Feature", "properties": {"norad_id": 32360, "name": "FENGYUN 1C DEB", "group": "fengyun-1c-debris", "lat": 22.818965277879045, "lon": 172.42702814354328, "alt_km": 962.0055171689937, "timestamp": "2025-12-26T03:50:12.379712+00:00", "meta": {"OBJECT_NAME": "FENGYUN 1C DEB", "OBJECT_ID": "1999-025CZD", "EPOCH": "2025-12-24T07:04:44.070528", "MEAN_MOTION": 13.98404862, "ECCENTRICITY": 0.02334639, "INCLINATION": 98.1032, "RA_OF_ASC_NODE": 174.2135, "ARG_OF_PERICENTER": 275.3665, "MEAN_ANOMALY": 82.0908, "EPHEMERIS_TYPE": 0, "CLASSIFICATION_TYPE": "U", "NORAD_CAT_ID": 32360, "ELEMENT_SET_NO": 999, "REV_AT_EPOCH": 64978, "BSTAR": 0.0029400127, "MEAN_MOTION_DOT": 5.27e-05, "MEAN_MOTION_DDOT": 0}, "tle": {"line1": "1 32360U 99025CZD 25358.29495452  .00005270  00000+0  29400-2 0  9992", "line2": "2 32360  98.1032 174.2135 0233463 275.3665  82.0908 13.98404862649783"}}, "geometry": {"type": "Point", "coordinates": [172.42702814354328, 22.818965277879045]}}, {"type": "Feature", "properties": {"norad_id": 32361, "name": "FENGYUN 1C DEB", "group": "fengyun-1c-debris", "lat": 55.61367571693216, "lon": 46.63587045144855, "alt_km": 696.865943740434, "timestamp": "2025-12-26T03:50:12.379723+00:00", "meta": {"OBJECT_NAME": "FENGYUN 1C DEB", "OBJECT_ID": "1999-025CZE", "EPOCH": "2025-12-24T03:35:29.284800", "MEAN_MOTION": 14.51199424, "ECCENTRICITY": 0.00453947, "INCLINATION": 98.8592, "RA_OF_ASC_NODE": 57.693, "ARG_OF_PERICENTER": 9.6539, "MEAN_ANOMALY": 350.5516, "EPHEMERIS_TYPE": 0, "CLASSIFICATION_TYPE": "U", "NORAD_CAT_ID": 32361, "ELEMENT_SET_NO": 999, "REV_AT_EPOCH": 96510, "BSTAR": 0.001878622, "MEAN_MOTION_DOT": 7.518e-05, "MEAN_MOTION_DDOT": 0}, "tle": {"line1": "1 32361U 99025CZE 25358.14964450  .00007518  00000+0  18786-2 0  9998", "line2": "2 32361  98.8592  57.6930 0045394   9.6539 350.5516 14.51199424965101"}}, "geometry": {"type": "Point", "coordinates": [46.63587045144855, 55.61367571693216]}}, {"type": "Feature", "properties": {"norad_id": 32362, "name": "FENGYUN 1C DEB", "group": "fengyun-1c-debris", "lat": -63.13438000664386, "lon": 131.49834531600536, "alt_km": 823.0561726824562, "timestamp": "2025-12-26T03:50:12.379733+00:00", "meta": {"OBJECT_NAME": "FENGYUN 1C DEB", "OBJECT_ID": "1999-025CZF", "EPOCH": "2025-12-24T04:53:41.858880", "MEAN_MOTION": 13.65242821, "ECCENTRICITY": 0.02730649, "INCLINATION": 99.8463, "RA_OF_ASC_NODE": 329.5614, "ARG_OF_PERICENTER": 256.2652, "MEAN_ANOMALY": 100.796, "EPHEMERIS_TYPE": 0, "CLASSIFICATION_TYPE": "U", "NORAD_CAT_ID": 32362, "ELEMENT_SET_NO": 999, "REV_AT_EPOCH": 91286, "BSTAR": 0.0020919161, "MEAN_MOTION_DOT": 2.144e-05, "MEAN_MOTION_DDOT": 0}, "tle": {"line1": "1 32362U 99025CZF 25358.20395670  .00002144  00000+0  20919-2 0  9999", "line2": "2 32362  99.8463 329.5614 0273064 256.2652 100.7960 13.65242821912860"}}, "geometry": {"type": "Point", "coordinates": [131.49834531600536, -63.13438000664386]}}, {"type": "Feature", "properties": {"norad_id": 32363, "name": "FENGYUN 1C DEB", "group": "fengyun-1c-debris", "lat": -22.383014115675532, "lon": 136.73030395201613, "alt_km": 433.5757747407997, "timestamp": "2025-12-26T03:50:12.379743+00:00", "meta": {"OBJECT_NAME": "FENGYUN 1C DEB", "OBJECT_ID": "1999-025CZG", "EPOCH": "2025-12-25T20:46:31.994112", "MEAN_MOTION": 15.50236728, "ECCENTRICITY": 0.0063674, "INCLINATION": 98.3333, "RA_OF_ASC_NODE": 319.8511, "ARG_OF_PERICENTER": 96.7545, "MEAN_ANOMALY": 264.0955, "EPHEMERIS_TYPE": 0, "CLASSIFICATION_TYPE": "U", "NORAD_CAT_ID": 32363, "ELEMENT_SET_NO": 999, "REV_AT_EPOCH": 97011, "BSTAR": 0.0017906, "MEAN_MOTION_DOT": 0.00111181, "MEAN_MOTION_DDOT": 0}, "tle": {"line1": "1 32363U 99025CZG 25359.86564808  .00111181  00000+0  17906-2 0  9998", "line2": "2 32363  98.3333 319.8511 0063674  96.7545 264.0955 15.50236728970116"}}, "geometry": {"type": "Point", "coordinates": [136.73030395201613, -22.383014115675532]}}, {"type": "Feature", "properties": {"norad_id": 32364, "name": "FENGYUN 1C DEB", "group": "fengyun-1c-debris", "lat": 59.797780869724185, "lon": -176.35538514474646, "alt_km": 827.2992526611943, "timestamp": "2025-12-26T03:50:12.379753+00:00", "meta": {"OBJECT_NAME": "FENGYUN 1C DEB", "OBJECT_ID": "1999-025CZH", "EPOCH": "2025-11-29T08:05:37.624992", "MEAN_MOTION": 14.14317962, "ECCENTRICITY": 0.01349396, "INCLINATION": 98.2918, "RA_OF_ASC_NODE": 173.2369, "ARG_OF_PERICENTER": 222.8285, "MEAN_ANOMALY": 136.2316, "EPHEMERIS_TYPE": 0, "CLASSIFICATION_TYPE": "U", "NORAD_CAT_ID": 32364, "ELEMENT_SET_NO": 999, "REV_AT_EPOCH": 63519, "BSTAR": 0.0022712328, "MEAN_MOTION_DOT": 4.699e-05, "MEAN_MOTION_DDOT": 0}, "tle": {"line1": "1 32364U 99025CZH 25333.33724103  .00004699  00000+0  22712-2 0  9995", "line2": "2 32364  98.2918 173.2369 0134939 222.8285 136.2316 14.14317962635190"}}, "geometry": {"type": "Point", "coordinates": [-176.35538514474646, 59.797780869724185]}}]}